{
  "type": "FeatureCollection",
  "features": [
    {
      "type": "Feature",
      "properties": {
        "norad_id": 43286,
        "name": "IRNSS-1I",
        "group": "gnss",
        "lat": -23.42643037554874,
        "lon": 26.20794674044131,
        "alt_km": 35842.43200005549,
        "timestamp": "2025-12-06T16:45:42.966136+00:00",
        "meta_object_name": "IRNSS-1I",
        "meta_object_id": "2018-035A",
        "meta_epoch": "2025-12-05T20:48:16.684992",
        "meta_mean_motion": 1.00268269,
        "meta_eccentricity": 0.00219842,
        "meta_inclination": 29.1335,
        "meta_ra_of_asc_node": 77.2048,
        "meta_arg_of_pericenter": 180.9988,
        "meta_mean_anomaly": 183.8684,
        "meta_ephemeris_type": 0,
        "meta_classification_type": "U",
        "meta_norad_cat_id": 43286,
        "meta_element_set_no": 999,
        "meta_rev_at_epoch": 2814,
        "meta_bstar": 0,
        "meta_mean_motion_dot": 7.3e-07,
        "meta_mean_motion_ddot": 0,
        "tle_line1": "1 43286U 18035A   25339.86685978  .00000073  00000+0  00000+0 0  9997",
        "tle_line2": "2 43286  29.1335  77.2048 0021984 180.9988 183.8684  1.00268269 28140"
      },
      "geometry": {
        "type": "Point",
        "coordinates": [
          26.20794674044131,
          -23.42643037554874
        ]
      }
    },
    {
      "type": "Feature",
      "properties": {
        "norad_id": 43508,
        "name": "COSMOS 2527 (756)",
        "group": "gnss",
        "lat": 7.562081436570805,
        "lon": 83.80874211159356,
        "alt_km": 19147.35993255117,
        "timestamp": "2025-12-06T16:45:42.966147+00:00",
        "meta_object_name": "COSMOS 2527 (756)",
        "meta_object_id": "2018-053A",
        "meta_epoch": "2025-12-04T19:27:07.624224",
        "meta_mean_motion": 2.1310203,
        "meta_eccentricity": 0.00086941,
        "meta_inclination": 65.4682,
        "meta_ra_of_asc_node": 80.3968,
        "meta_arg_of_pericenter": 224.6174,
        "meta_mean_anomaly": 135.3122,
        "meta_ephemeris_type": 0,
        "meta_classification_type": "U",
        "meta_norad_cat_id": 43508,
        "meta_element_set_no": 999,
        "meta_rev_at_epoch": 5813,
        "meta_bstar": 0,
        "meta_mean_motion_dot": -2.1e-07,
        "meta_mean_motion_ddot": 0,
        "tle_line1": "1 43508U 18053A   25338.81050491 -.00000021  00000+0  00000+0 0  9998",
        "tle_line2": "2 43508  65.4682  80.3968 0008694 224.6174 135.3122  2.13102030 58136"
      },
      "geometry": {
        "type": "Point",
        "coordinates": [
          83.80874211159356,
          7.562081436570805
        ]
      }
    },
    {
      "type": "Feature",
      "properties": {
        "norad_id": 43539,
        "name": "BEIDOU-2 IGSO-7 (C16)",
        "group": "gnss",
        "lat": -54.874465220865304,
        "lon": 82.28520539930798,
        "alt_km": 35491.95495425571,
        "timestamp": "2025-12-06T16:45:42.966159+00:00",
        "meta_object_name": "BEIDOU-2 IGSO-7 (C16)",
        "meta_object_id": "2018-057A",
        "meta_epoch": "2025-12-05T22:34:51.695904",
        "meta_mean_motion": 1.00258883,
        "meta_eccentricity": 0.00924726,
        "meta_inclination": 55.1738,
        "meta_ra_of_asc_node": 164.731,
        "meta_arg_of_pericenter": 235.1961,
        "meta_mean_anomaly": 125.0638,
        "meta_ephemeris_type": 0,
        "meta_classification_type": "U",
        "meta_norad_cat_id": 43539,
        "meta_element_set_no": 999,
        "meta_rev_at_epoch": 2719,
        "meta_bstar": 0,
        "meta_mean_motion_dot": -5.3e-07,
        "meta_mean_motion_ddot": 0,
        "tle_line1": "1 43539U 18057A   25339.94087611 -.00000053  00000+0  00000+0 0  9990",
        "tle_line2": "2 43539  55.1738 164.7310 0092472 235.1961 125.0638  1.00258883 27197"
      },
      "geometry": {
        "type": "Point",
        "coordinates": [
          82.28520539930798,
          -54.874465220865304
        ]
      }
    },
    {
      "type": "Feature",
      "properties": {
        "norad_id": 43564,
        "name": "GSAT0221 (GALILEO 25)",
        "group": "gnss",
        "lat": 17.168292193621724,
        "lon": -1.5371068141308455,
        "alt_km": 23223.416186562023,
        "timestamp": "2025-12-06T16:45:42.966170+00:00",
        "meta_object_name": "GSAT0221 (GALILEO 25)",
        "meta_object_id": "2018-060A",
        "meta_epoch": "2025-12-04T07:38:46.646016",
        "meta_mean_motion": 1.70475653,
        "meta_eccentricity": 0.00066579,
        "meta_inclination": 57.2296,
        "meta_ra_of_asc_node": 347.0453,
        "meta_arg_of_pericenter": 280.7305,
        "meta_mean_anomaly": 79.2265,
        "meta_ephemeris_type": 0,
        "meta_classification_type": "U",
        "meta_norad_cat_id": 43564,
        "meta_element_set_no": 999,
        "meta_rev_at_epoch": 4584,
        "meta_bstar": 0,
        "meta_mean_motion_dot": -7.1e-07,
        "meta_mean_motion_ddot": 0,
        "tle_line1": "1 43564U 18060A   25338.31859544 -.00000071  00000+0  00000+0 0  9994",
        "tle_line2": "2 43564  57.2296 347.0453 0006657 280.7305  79.2265  1.70475653 45840"
      },
      "geometry": {
        "type": "Point",
        "coordinates": [
          -1.5371068141308455,
          17.168292193621724
        ]
      }
    },
    {
      "type": "Feature",
      "properties": {
        "norad_id": 43565,
        "name": "GSAT0222 (GALILEO 26)",
        "group": "gnss",
        "lat": -50.117104991295875,
        "lon": -142.57867642228638,
        "alt_km": 23209.971459175293,
        "timestamp": "2025-12-06T16:45:42.966182+00:00",
        "meta_object_name": "GSAT0222 (GALILEO 26)",
        "meta_object_id": "2018-060B",
        "meta_epoch": "2025-12-05T17:03:57.438144",
        "meta_mean_motion": 1.70475397,
        "meta_eccentricity": 0.00061787,
        "meta_inclination": 57.2328,
        "meta_ra_of_asc_node": 347.0105,
        "meta_arg_of_pericenter": 261.4004,
        "meta_mean_anomaly": 98.5552,
        "meta_ephemeris_type": 0,
        "meta_classification_type": "U",
        "meta_norad_cat_id": 43565,
        "meta_element_set_no": 999,
        "meta_rev_at_epoch": 4591,
        "meta_bstar": 0,
        "meta_mean_motion_dot": -7.7e-07,
        "meta_mean_motion_ddot": 0,
        "tle_line1": "1 43565U 18060B   25339.71108146 -.00000077  00000+0  00000+0 0  9991",
        "tle_line2": "2 43565  57.2328 347.0105 0006178 261.4004  98.5552  1.70475397 45917"
      },
      "geometry": {
        "type": "Point",
        "coordinates": [
          -142.57867642228638,
          -50.117104991295875
        ]
      }
    },
    {
      "type": "Feature",
      "properties": {
        "norad_id": 43566,
        "name": "GSAT0219 (GALILEO 23)",
        "group": "gnss",
        "lat": 52.094528055290716,
        "lon": 111.15548788560707,
        "alt_km": 23233.111083204672,
        "timestamp": "2025-12-06T16:45:42.966196+00:00",
        "meta_object_name": "GSAT0219 (GALILEO 23)",
        "meta_object_id": "2018-060C",
        "meta_epoch": "2025-12-05T22:22:25.351104",
        "meta_mean_motion": 1.70475529,
        "meta_eccentricity": 0.00057979,
        "meta_inclination": 57.232,
        "meta_ra_of_asc_node": 347.0061,
        "meta_arg_of_pericenter": 286.2752,
        "meta_mean_anomaly": 73.6857,
        "meta_ephemeris_type": 0,
        "meta_classification_type": "U",
        "meta_norad_cat_id": 43566,
        "meta_element_set_no": 999,
        "meta_rev_at_epoch": 4589,
        "meta_bstar": 0,
        "meta_mean_motion_dot": -7.8e-07,
        "meta_mean_motion_ddot": 0,
        "tle_line1": "1 43566U 18060C   25339.93223786 -.00000078  00000+0  00000+0 0  9995",
        "tle_line2": "2 43566  57.2320 347.0061 0005797 286.2752  73.6857  1.70475529 45898"
      },
      "geometry": {
        "type": "Point",
        "coordinates": [
          111.15548788560707,
          52.094528055290716
        ]
      }
    },
    {
      "type": "Feature",
      "properties": {
        "norad_id": 43567,
        "name": "GSAT0220 (GALILEO 24)",
        "group": "gnss",
        "lat": -21.11495421328418,
        "lon": -27.41942237593028,
        "alt_km": 23213.913190217187,
        "timestamp": "2025-12-06T16:45:42.966210+00:00",
        "meta_object_name": "GSAT0220 (GALILEO 24)",
        "meta_object_id": "2018-060D",
        "meta_epoch": "2025-12-04T23:31:11.369280",
        "meta_mean_motion": 1.70475333,
        "meta_eccentricity": 0.00061638,
        "meta_inclination": 57.2318,
        "meta_ra_of_asc_node": 347.0321,
        "meta_arg_of_pericenter": 281.7737,
        "meta_mean_anomaly": 78.1861,
        "meta_ephemeris_type": 0,
        "meta_classification_type": "U",
        "meta_norad_cat_id": 43567,
        "meta_element_set_no": 999,
        "meta_rev_at_epoch": 4586,
        "meta_bstar": 0,
        "meta_mean_motion_dot": -7.4e-07,
        "meta_mean_motion_ddot": 0,
        "tle_line1": "1 43567U 18060D   25338.97999270 -.00000074  00000+0  00000+0 0  9993",
        "tle_line2": "2 43567  57.2318 347.0321 0006163 281.7737  78.1861  1.70475333 45861"
      },
      "geometry": {
        "type": "Point",
        "coordinates": [
          -27.41942237593028,
          -21.11495421328418
        ]
      }
    }
  ]
}